*******************************************************************************
Ephemeris / WWW_USER Mon Mar 26 20:15:07 2018 Pasadena, USA      / Horizons    
*******************************************************************************
Target body name: Adrastea (515)                  {source: jup310}
Center body name: Jupiter Barycenter (5)          {source: DE431mx}
Center-site name: BODY CENTER
*******************************************************************************
Start time      : A.D. 2000-Jan-01 00:00:00.0000 TDB
Stop  time      : A.D. 2005-Jan-01 00:00:00.0000 TDB
Step-size       : 7200 minutes
*******************************************************************************
Center geodetic : 0.00000000,0.00000000,0.0000000 {E-lon(deg),Lat(deg),Alt(km)}
Center cylindric: 0.00000000,0.00000000,0.0000000 {E-lon(deg),Dxy(km),Dz(km)}
Center radii    : (undefined)                                                  
Output units    : AU-D                                                         
Output type     : GEOMETRIC cartesian states
Output format   : 2 (position and velocity)
Reference frame : ICRF/J2000.0                                                 
Coordinate systm: Ecliptic and Mean Equinox of Reference Epoch                 
*******************************************************************************
JDTDB
   X     Y     Z
   VX    VY    VZ
*******************************************************************************
$$SOE
2452594.500000000 = A.D. 2002-Nov-16 00:00:00.0000 TDB 
  -4.054132028971041E-04  7.596295559934999E-04  2.148433305873685E-05
  -1.602982859208429E-02 -8.521689691829733E-03 -5.403104934913262E-04
2452599.500000000 = A.D. 2002-Nov-21 00:00:00.0000 TDB 
   7.227998870047257E-04  4.690676907114675E-04  2.753389527784488E-05
  -9.899658515523803E-03  1.521820323318988E-02  4.028105830798153E-04
2452604.500000000 = A.D. 2002-Nov-26 00:00:00.0000 TDB 
   5.312781612242851E-04 -6.774813551553424E-04 -1.646449087407381E-05
   1.430556490863460E-02  1.117714024964058E-02  6.135448472199156E-04
2452609.500000000 = A.D. 2002-Dec-01 00:00:00.0000 TDB 
  -6.306805830167386E-04 -5.876662074915373E-04 -3.036934449167799E-05
   1.238815823370393E-02 -1.327784102117010E-02 -2.910807229184994E-04
2452614.500000000 = A.D. 2002-Dec-06 00:00:00.0000 TDB 
  -6.411712837646815E-04  5.757637059165020E-04  1.107351557834591E-05
  -1.214423586415153E-02 -1.348631519965475E-02 -6.594647497284472E-04
2452619.500000000 = A.D. 2002-Dec-11 00:00:00.0000 TDB 
   5.190268747019349E-04  6.886598974230285E-04  3.208421295072934E-05
  -1.450911636434775E-02  1.093017376595139E-02  1.777276294645019E-04
2452624.500000000 = A.D. 2002-Dec-16 00:00:00.0000 TDB 
   7.311461583757947E-04 -4.568422108458693E-04 -5.753090724108252E-06
   9.623674250842073E-03  1.538665648621240E-02  6.880515011932981E-04
2452629.500000000 = A.D. 2002-Dec-21 00:00:00.0000 TDB 
  -3.917502004431984E-04 -7.689435825298393E-04 -3.319670607766972E-05
   1.618293604257683E-02 -8.246021878170993E-03 -6.272956111792395E-05
2452634.500000000 = A.D. 2002-Dec-26 00:00:00.0000 TDB 
  -7.988440340113532E-04  3.236412222855844E-04  9.910243551735960E-08
  -6.807043982934588E-03 -1.682818594441696E-02 -7.040768254429240E-04
2452639.500000000 = A.D. 2002-Dec-31 00:00:00.0000 TDB 
   2.526540135133085E-04  8.250643452185082E-04  3.343281222176070E-05
  -1.736451310538732E-02  5.320515509482669E-03 -6.178972732296955E-05
2452644.500000000 = A.D. 2003-Jan-05 00:00:00.0000 TDB 
   8.429243998215259E-04 -1.805608164061562E-04  5.941535376494255E-06
   3.778173270481215E-03  1.775239455478018E-02  6.949086052162241E-04
2452649.500000000 = A.D. 2003-Jan-10 00:00:00.0000 TDB 
  -1.053598944765639E-04 -8.553560890233584E-04 -3.223711027946983E-05
   1.802719543663263E-02 -2.230579797112144E-03  1.875209142373187E-04
2452654.500000000 = A.D. 2003-Jan-15 00:00:00.0000 TDB 
  -8.614070558257107E-04  3.207963716998503E-05 -1.160894665745665E-05
  -6.434614775827505E-04 -1.813633603047791E-02 -6.570663718400508E-04
2452659.500000000 = A.D. 2003-Jan-20 00:00:00.0000 TDB 
  -4.522230866784526E-05  8.599969550900677E-04  2.995957747969536E-05
  -1.813691587731932E-02 -9.333907778187299E-04 -2.994018433146379E-04
2452664.500000000 = A.D. 2003-Jan-25 00:00:00.0000 TDB 
   8.533545207276523E-04  1.178689293865049E-04  1.658776785284852E-05
  -2.512813080854509E-03  1.797883064564289E-02  6.040012841322405E-04
2452669.500000000 = A.D. 2003-Jan-30 00:00:00.0000 TDB 
   1.938778705500010E-04 -8.389742688162729E-04 -2.719473058684662E-05
   1.769439926134183E-02  4.060328034178979E-03  3.999998119454102E-04
2452674.500000000 = A.D. 2003-Feb-04 00:00:00.0000 TDB 
  -8.197704017999462E-04 -2.648597087809597E-04 -2.131996922015128E-05
   5.599832771470566E-03 -1.727089387291389E-02 -5.394583407530407E-04
2452679.500000000 = A.D. 2003-Feb-09 00:00:00.0000 TDB 
  -3.362824994303412E-04  7.923705262425070E-04  2.367072155845224E-05
  -1.672453143289386E-02 -7.064857400566547E-03 -4.971523116330931E-04
2452684.500000000 = A.D. 2003-Feb-14 00:00:00.0000 TDB 
   7.620029135382493E-04  4.037342680879288E-04  2.573047346183821E-05
  -8.508964240934822E-03  1.603632584360593E-02  4.532823898936062E-04
2452689.500000000 = A.D. 2003-Feb-19 00:00:00.0000 TDB 
   4.688068358642744E-04 -7.221723131818090E-04 -1.903178522732572E-05
   1.524316765029519E-02  9.862643143162968E-03  5.802652254576850E-04
2452694.500000000 = A.D. 2003-Feb-24 00:00:00.0000 TDB 
  -6.807033563929192E-04 -5.299837686976286E-04 -2.907346676481971E-05
   1.116030990103840E-02 -1.432485042680497E-02 -3.472098218230513E-04
2452699.500000000 = A.D. 2003-Mar-01 00:00:00.0000 TDB 
  -5.871773295594953E-04  6.310283254825923E-04  1.383315964585259E-05
  -1.329574379378178E-02 -1.235431143915261E-02 -6.368400919288850E-04
2452704.500000000 = A.D. 2003-Mar-06 00:00:00.0000 TDB 
   5.781806615874083E-04  6.401498942698023E-04  3.123846742319522E-05
  -1.348150336219464E-02  1.217465090247041E-02  2.363962549623488E-04
2452709.500000000 = A.D. 2003-Mar-11 00:00:00.0000 TDB 
   6.874206031522690E-04 -5.207188305861720E-04 -8.627175536998341E-06
   1.095392526428950E-02  1.447094537225757E-02  6.744347879011328E-04
2452714.500000000 = A.D. 2003-Mar-16 00:00:00.0000 TDB 
  -4.583033230063760E-04 -7.308705622112282E-04 -3.275920577068644E-05
   1.538685051361099E-02 -9.649524963653674E-03 -1.240692165274638E-04
2452719.500000000 = A.D. 2003-Mar-21 00:00:00.0000 TDB 
  -7.668174456822195E-04  3.938141225033443E-04  3.094000620170328E-06
  -8.275982456062517E-03 -1.615662822107717E-02 -7.004026391940726E-04
2452724.500000000 = A.D. 2003-Mar-26 00:00:00.0000 TDB 
   3.246307146635693E-04  7.987331410025350E-04  3.351717739847322E-05
  -1.682350927158949E-02  6.840392920544247E-03  1.557278764919262E-06
2452729.500000000 = A.D. 2003-Mar-31 00:00:00.0000 TDB 
   8.235561662275461E-04 -2.548337683680567E-04  2.949824069141760E-06
   5.340760032260219E-03  1.734565251709800E-02  7.035419167391954E-04
2452734.500000000 = A.D. 2003-Apr-05 00:00:00.0000 TDB 
  -1.805622793733691E-04 -8.418219964260945E-04 -3.290062100758544E-05
   1.775804403446193E-02 -3.821457890818722E-03  1.261484118225614E-04
2452739.500000000 = A.D. 2003-Apr-10 00:00:00.0000 TDB 
  -8.553639001584038E-04  1.082069537693777E-04 -8.815288049279530E-06
  -2.252352001361317E-03 -1.800642984831645E-02 -6.769477730450774E-04
2452744.500000000 = A.D. 2003-Apr-15 00:00:00.0000 TDB 
   3.114978120263410E-05  8.598873044070940E-04  3.109188294895528E-05
  -1.814846835579142E-02  6.800674438052447E-04 -2.428231357629995E-04
2452749.500000000 = A.D. 2003-Apr-20 00:00:00.0000 TDB 
   8.608432756427628E-04  4.224250779661125E-05  1.403454366434036E-05
  -9.057309731027574E-04  1.813011716358847E-02  6.324002835378080E-04
2452754.500000000 = A.D. 2003-Apr-25 00:00:00.0000 TDB 
   1.184840392537206E-04 -8.525726391976867E-04 -2.873430635492684E-05
   1.798599214542891E-02  2.473396115803973E-03  3.477342352583244E-04
2452759.500000000 = A.D. 2003-Apr-30 00:00:00.0000 TDB 
  -8.404464950965436E-04 -1.917638186096302E-04 -1.897559457152699E-05
   4.043613421730032E-03 -1.769913987638770E-02 -5.765672503733972E-04
2452764.500000000 = A.D. 2003-May-05 00:00:00.0000 TDB 
  -2.642893126053252E-04  8.193541580786555E-04  2.567754635397195E-05
  -1.728738858892944E-02 -5.552030485263917E-03 -4.500902989350214E-04
2452769.500000000 = A.D. 2003-May-10 00:00:00.0000 TDB 
   7.951592946303092E-04  3.350220273854648E-04  2.370762049911642E-05
  -7.050868498423877E-03  1.672780483484154E-02  4.999738582856154E-04
2452774.500000000 = A.D. 2003-May-15 00:00:00.0000 TDB 
   4.024602314694299E-04 -7.615315088597596E-04 -2.146296878434157E-05
   1.606056462588635E-02  8.470079222812212E-03  5.421281491497541E-04
2452779.500000000 = A.D. 2003-May-20 00:00:00.0000 TDB 
  -7.252067575258365E-04 -4.676804259980004E-04 -2.752141248411263E-05
   9.843983242151267E-03 -1.525864501088482E-02 -4.007889032294337E-04
2452784.500000000 = A.D. 2003-May-25 00:00:00.0000 TDB 
  -5.284456709810657E-04  6.813760341878018E-04  1.649919641061044E-05
  -1.434216032841012E-02 -1.112453210274166E-02 -6.091847472014646E-04
2452789.500000000 = A.D. 2003-May-30 00:00:00.0000 TDB 
   6.325583657213583E-04  5.861115615240563E-04  3.013631416017537E-05
  -1.234705302459914E-02  1.332276432097583E-02  2.933755902541947E-04
2452794.500000000 = A.D. 2003-Jun-04 00:00:00.0000 TDB 
   6.382702883102735E-04 -5.802693866050701E-04 -1.142359428664720E-05
   1.219739013056114E-02  1.344069322748051E-02  6.557497079918727E-04
2452799.500000000 = A.D. 2003-Jun-09 00:00:00.0000 TDB 
  -5.210173306806576E-04 -6.866712275811777E-04 -3.205630144079140E-05
   1.446891410359238E-02 -1.097649345955988E-02 -1.842086814587491E-04
